GLOBALSTAR M073         
1 37193U 10054F   26062.35610181 -.00000107  00000+0 -19095-4 0  9991
2 37193  52.0080  26.4418 0000520 103.7480  60.9636 12.62269680710566
GLOBALSTAR M083         
1 37739U 11033A   26062.21057919 -.00000080  00000+0  13309-3 0  9994
2 37739  51.9882 335.2614 0000753  89.3263  75.4050 12.62267325679564
GLOBALSTAR M088         
1 37740U 11033B   26061.94684323 -.00000097  00000+0  36157-4 0  9995
2 37740  52.0195 242.2345 0000861  92.8187  71.7728 12.62262093675077
GLOBALSTAR M091         
1 37741U 11033C   26062.40665477 -.00000115  00000+0 -61706-4 0  9997
2 37741  51.9984 203.9561 0000927  96.8968 298.2310 12.62270184675927
GLOBALSTAR M085         
1 37742U 11033D   26062.48309764 -.00000091  00000+0  72700-4 0  9998
2 37742  52.0120 154.9231 0000873 104.7813 338.2270 12.62269373676445
GLOBALSTAR M081         
1 37743U 11033E   26062.42893461 -.00000099  00000+0  24542-4 0  9994
2 37743  51.9950 157.6439 0000804 120.1970 316.6777 12.62262567676580
GLOBALSTAR M089         
1 37744U 11033F   26062.47543718 -.00000069  00000+0  19180-3 0  9995
2 37744  51.9920 111.6825 0000381 155.7786 312.5137 12.62264529677436
GLOBALSTAR M084         
1 38040U 11080A   26062.18063042 -.00000099  00000+0  29287-4 0  9995
2 38040  52.0038 340.0063 0000356  81.7582  66.0851 12.62265205655379
GLOBALSTAR M080         
1 38041U 11080B   26062.23509398 -.00000084  00000+0  11264-3 0  9990
2 38041  52.0086 341.5220 0000974  56.6676 108.2395 12.62266793655505
GLOBALSTAR M082         
1 38042U 11080C   26062.09203088 -.00000064  00000+0  22088-3 0  9996
2 38042  52.0079 297.4489 0001086  69.5680  94.8374 12.62267912656194
GLOBALSTAR M092         
1 38043U 11080D   26062.38316294 -.00000102  00000+0  79403-5 0  9991
2 38043  52.0104  26.9482 0000358  82.1847  85.8735 12.62264185654681
GLOBALSTAR M090         
1 38044U 11080E   26062.04042525 -.00000067  00000+0  20363-3 0  9997
2 38044  52.0121 291.5279 0000917  85.7752  82.8926 12.62271591656309
GLOBALSTAR M086         
1 38045U 11080F   26062.06270608 -.00000070  00000+0  18587-3 0  9994
2 38045  51.9898 291.5629 0001308 140.0361  24.3320 12.62283316656255
GLOBALSTAR M097         
1 39072U 13005A   26061.65951262 -.00000123  00000+0 -10540-3 0  9991
2 39072  52.0030 207.6114 0001060 108.1649 251.9333 12.62284394603455
GLOBALSTAR M093         
1 39073U 13005B   26062.50440888 -.00000115  00000+0 -61022-4 0  9997
2 39073  52.0094 198.3482 0001201 110.1132 249.9864 12.62273216603511
GLOBALSTAR M094         
1 39074U 13005C   26062.42538561 -.00000076  00000+0  15350-3 0  9992
2 39074  51.9950 112.8136 0000733 116.8779 243.2162 12.62267020605119
GLOBALSTAR M096         
1 39075U 13005D   26062.43852760 -.00000103  00000+0  41286-5 0  9994
2 39075  52.0066 161.4899 0000889 109.1511 250.9452 12.62263275604032
